{
  "type": "FeatureCollection",
  "features": [
    {
      "type": "Feature",
      "properties": {
        "norad_id": 66934,
        "name": "STARLINK-36153",
        "group": "last-30-days",
        "lat": -29.260558494981847,
        "lon": -47.56702333748116,
        "alt_km": 418.14305915866316,
        "timestamp": "2025-12-27T11:23:18.580707+00:00",
        "meta_object_name": "STARLINK-36153",
        "meta_object_id": "2025-286K",
        "meta_epoch": "2025-12-27T04:00:01.998720",
        "meta_mean_motion": 15.52340413,
        "meta_eccentricity": 0.0001164,
        "meta_inclination": 53.1594,
        "meta_ra_of_asc_node": 338.7486,
        "meta_arg_of_pericenter": 93.3045,
        "meta_mean_anomaly": 308.5875,
        "meta_ephemeris_type": 0,
        "meta_classification_type": "U",
        "meta_norad_cat_id": 66934,
        "meta_element_set_no": 999,
        "meta_rev_at_epoch": 430,
        "meta_bstar": -0.034747,
        "meta_mean_motion_dot": -0.01932546,
        "meta_mean_motion_ddot": 0,
        "tle_line1": "1 66934U 25286K   25361.16668980 -.01932546  00000+0 -34747-1 0  9999",
        "tle_line2": "2 66934  53.1594 338.7486 0001164  93.3045 308.5875 15.52340413  4303"
      },
      "geometry": {
        "type": "Point",
        "coordinates": [
          -47.56702333748116,
          -29.260558494981847
        ]
      }
    },
    {
      "type": "Feature",
      "properties": {
        "norad_id": 66935,
        "name": "STARLINK-36127",
        "group": "last-30-days",
        "lat": -27.85980017272536,
        "lon": -46.08009285469405,
        "alt_km": 418.2125187106485,
        "timestamp": "2025-12-27T11:23:18.580727+00:00",
        "meta_object_name": "STARLINK-36127",
        "meta_object_id": "2025-286L",
        "meta_epoch": "2025-12-27T04:00:01.998720",
        "meta_mean_motion": 15.52340648,
        "meta_eccentricity": 0.0001201,
        "meta_inclination": 53.1596,
        "meta_ra_of_asc_node": 338.7439,
        "meta_arg_of_pericenter": 112.0984,
        "meta_mean_anomaly": 291.7112,
        "meta_ephemeris_type": 0,
        "meta_classification_type": "U",
        "meta_norad_cat_id": 66935,
        "meta_element_set_no": 999,
        "meta_rev_at_epoch": 430,
        "meta_bstar": -0.034762,
        "meta_mean_motion_dot": -0.01933305,
        "meta_mean_motion_ddot": 0,
        "tle_line1": "1 66935U 25286L   25361.16668980 -.01933305  00000+0 -34762-1 0  9991",
        "tle_line2": "2 66935  53.1596 338.7439 0001201 112.0984 291.7112 15.52340648  4304"
      },
      "geometry": {
        "type": "Point",
        "coordinates": [
          -46.08009285469405,
          -27.85980017272536
        ]
      }
    },
    {
      "type": "Feature",
      "properties": {
        "norad_id": 66936,
        "name": "STARLINK-36160",
        "group": "last-30-days",
        "lat": -26.44680234966712,
        "lon": -44.633619920095484,
        "alt_km": 418.0388513275266,
        "timestamp": "2025-12-27T11:23:18.580741+00:00",
        "meta_object_name": "STARLINK-36160",
        "meta_object_id": "2025-286M",
        "meta_epoch": "2025-12-27T04:00:01.998720",
        "meta_mean_motion": 15.52341804,
        "meta_eccentricity": 0.0001104,
        "meta_inclination": 53.1594,
        "meta_ra_of_asc_node": 338.7408,
        "meta_arg_of_pericenter": 111.5681,
        "meta_mean_anomaly": 294.156,
        "meta_ephemeris_type": 0,
        "meta_classification_type": "U",
        "meta_norad_cat_id": 66936,
        "meta_element_set_no": 999,
        "meta_rev_at_epoch": 430,
        "meta_bstar": -0.03481,
        "meta_mean_motion_dot": -0.01935739,
        "meta_mean_motion_ddot": 0,
        "tle_line1": "1 66936U 25286M   25361.16668980 -.01935739  00000+0 -34810-1 0  9999",
        "tle_line2": "2 66936  53.1594 338.7408 0001104 111.5681 294.1560 15.52341804  4308"
      },
      "geometry": {
        "type": "Point",
        "coordinates": [
          -44.633619920095484,
          -26.44680234966712
        ]
      }
    },
    {
      "type": "Feature",
      "properties": {
        "norad_id": 66937,
        "name": "STARLINK-36165",
        "group": "last-30-days",
        "lat": -25.017757593013286,
        "lon": -43.221644326207645,
        "alt_km": 417.85329931356955,
        "timestamp": "2025-12-27T11:23:18.580753+00:00",
        "meta_object_name": "STARLINK-36165",
        "meta_object_id": "2025-286N",
        "meta_epoch": "2025-12-27T04:00:01.998720",
        "meta_mean_motion": 15.5233669,
        "meta_eccentricity": 0.000101,
        "meta_inclination": 53.1594,
        "meta_ra_of_asc_node": 338.7366,
        "meta_arg_of_pericenter": 111.3279,
        "meta_mean_anomaly": 296.3143,
        "meta_ephemeris_type": 0,
        "meta_classification_type": "U",
        "meta_norad_cat_id": 66937,
        "meta_element_set_no": 999,
        "meta_rev_at_epoch": 430,
        "meta_bstar": -0.034591,
        "meta_mean_motion_dot": -0.01890432,
        "meta_mean_motion_ddot": 0,
        "tle_line1": "1 66937U 25286N   25361.16668980 -.01890432  00000+0 -34591-1 0  9996",
        "tle_line2": "2 66937  53.1594 338.7366 0001010 111.3279 296.3143 15.52336690  4307"
      },
      "geometry": {
        "type": "Point",
        "coordinates": [
          -43.221644326207645,
          -25.017757593013286
        ]
      }
    },
    {
      "type": "Feature",
      "properties": {
        "norad_id": 66938,
        "name": "STARLINK-36155",
        "group": "last-30-days",
        "lat": -23.57545114180039,
        "lon": -41.842609621720705,
        "alt_km": 417.7143341794699,
        "timestamp": "2025-12-27T11:23:18.580765+00:00",
        "meta_object_name": "STARLINK-36155",
        "meta_object_id": "2025-286P",
        "meta_epoch": "2025-12-27T04:00:01.998720",
        "meta_mean_motion": 15.52337718,
        "meta_eccentricity": 0.000101,
        "meta_inclination": 53.1596,
        "meta_ra_of_asc_node": 338.7319,
        "meta_arg_of_pericenter": 109.0984,
        "meta_mean_anomaly": 300.4622,
        "meta_ephemeris_type": 0,
        "meta_classification_type": "U",
        "meta_norad_cat_id": 66938,
        "meta_element_set_no": 999,
        "meta_rev_at_epoch": 430,
        "meta_bstar": -0.034659,
        "meta_mean_motion_dot": -0.01927893,
        "meta_mean_motion_ddot": 0,
        "tle_line1": "1 66938U 25286P   25361.16668980 -.01927893  00000+0 -34659-1 0  9994",
        "tle_line2": "2 66938  53.1596 338.7319 0001010 109.0984 300.4622 15.52337718  4306"
      },
      "geometry": {
        "type": "Point",
        "coordinates": [
          -41.842609621720705,
          -23.57545114180039
        ]
      }
    },
    {
      "type": "Feature",
      "properties": {
        "norad_id": 66939,
        "name": "STARLINK-36154",
        "group": "last-30-days",
        "lat": -20.658351449291686,
        "lon": -39.17337425890204,
        "alt_km": 417.4937887570777,
        "timestamp": "2025-12-27T11:23:18.580775+00:00",
        "meta_object_name": "STARLINK-36154",
        "meta_object_id": "2025-286Q",
        "meta_epoch": "2025-12-27T04:00:01.998720",
        "meta_mean_motion": 15.5234232,
        "meta_eccentricity": 0.0001083,
        "meta_inclination": 53.1594,
        "meta_ra_of_asc_node": 338.7244,
        "meta_arg_of_pericenter": 110.5351,
        "meta_mean_anomaly": 302.8561,
        "meta_ephemeris_type": 0,
        "meta_classification_type": "U",
        "meta_norad_cat_id": 66939,
        "meta_element_set_no": 999,
        "meta_rev_at_epoch": 430,
        "meta_bstar": -0.034823,
        "meta_mean_motion_dot": -0.01936424,
        "meta_mean_motion_ddot": 0,
        "tle_line1": "1 66939U 25286Q   25361.16668980 -.01936424  00000+0 -34823-1 0  9998",
        "tle_line2": "2 66939  53.1594 338.7244 0001083 110.5351 302.8561 15.52342320  4300"
      },
      "geometry": {
        "type": "Point",
        "coordinates": [
          -39.17337425890204,
          -20.658351449291686
        ]
      }
    },
    {
      "type": "Feature",
      "properties": {
        "norad_id": 66940,
        "name": "STARLINK-36121",
        "group": "last-30-days",
        "lat": -19.182699074625038,
        "lon": -37.87660732418641,
        "alt_km": 417.0397934190678,
        "timestamp": "2025-12-27T11:23:18.580787+00:00",
        "meta_object_name": "STARLINK-36121",
        "meta_object_id": "2025-286R",
        "meta_epoch": "2025-12-27T04:00:01.998720",
        "meta_mean_motion": 15.52353285,
        "meta_eccentricity": 9.21e-05,
        "meta_inclination": 53.1593,
        "meta_ra_of_asc_node": 338.7205,
        "meta_arg_of_pericenter": 96.7552,
        "meta_mean_anomaly": 318.5505,
        "meta_ephemeris_type": 0,
        "meta_classification_type": "U",
        "meta_norad_cat_id": 66940,
        "meta_element_set_no": 999,
        "meta_rev_at_epoch": 430,
        "meta_bstar": -0.035175,
        "meta_mean_motion_dot": -0.01954566,
        "meta_mean_motion_ddot": 0,
        "tle_line1": "1 66940U 25286R   25361.16668980 -.01954566  00000+0 -35175-1 0  9998",
        "tle_line2": "2 66940  53.1593 338.7205 0000921  96.7552 318.5505 15.52353285  4300"
      },
      "geometry": {
        "type": "Point",
        "coordinates": [
          -37.87660732418641,
          -19.182699074625038
        ]
      }
    }
  ]
}